#aV2015 10 27  0  0  0.00000000     288 DD+AD WGS84 FIT  NGA
## 1868 172800.00000000   300.00000000 57322 0.0000000000000
+   31     1  2  3  4  5  6  7  8  9 11 12 13 14 15 16 17 18
+         19 20 21 22 23 24 25 26 27 28 29 30 31 32  0  0  0
+          0  0  0  0  0  0  0  0  0  0  0  0  0  0  0  0  0
+          0  0  0  0  0  0  0  0  0  0  0  0  0  0  0  0  0
+          0  0  0  0  0  0  0  0  0  0  0  0  0  0  0  0  0
++         2  2  2  2  2  2  2  2  2  2  2  2  2  2  2  2  2
++         2  2  2  2  2  2  2  2  2  2  2  2  2  2  0  0  0
++         0  0  0  0  0  0  0  0  0  0  0  0  0  0  0  0  0
++         0  0  0  0  0  0  0  0  0  0  0  0  0  0  0  0  0
++         0  0  0  0  0  0  0  0  0  0  0  0  0  0  0  0  0
%c cc cc ccc ccc cccc cccc cccc cccc ccccc ccccc ccccc ccccc
%c cc cc ccc ccc cccc cccc cccc cccc ccccc ccccc ccccc ccccc
%f  0.0000000  0.000000000  0.00000000000  0.000000000000000
%f  0.0000000  0.000000000  0.00000000000  0.000000000000000
%i    0    0    0    0      0      0      0      0         0
%i    0    0    0    0      0      0      0      0         0
/*      NGA, ST. LOUIS,MO.                                  
/*   EPHEMERIS COMPUTED FROM 2 DAYS OF DATA                 
/*   EPOCHA v2.4 SMOOTHER                                   
/*   G1762 IERS2010 SATAF SATAPC                            
*  2015 10 27 13 10  0.00000000
P  1  15568.978853   -526.751109  21460.602462      3.210929                    
V  1   8271.300314  26117.252623  -5142.196580      0.007683                    
P  2 -14156.687435 -21160.526619  -7915.596205    594.083613                    
V  2   -966.711083 -10844.845311  28846.402733      0.011735                    
P  3  20848.770835  -9274.563917  13613.296606     18.079880                    
V  3  -9736.105881  14441.895362  24735.581860     -0.022373                    
P  4  17133.992349   9850.238378  17506.579184    -37.992786                    
V  4   5957.077855  22199.066290 -17706.712924     -0.053028                    
P  5 -12032.394425  -9859.656501 -21593.839321   -180.816910                    
V  5  17877.478472 -20656.085136   -339.222653      0.038966                    
P  6  -6549.661156 -25574.389127   2953.274924     84.350838                    
V  6   3804.005667   2666.490368  31491.364021      0.069011                    
P  7   8490.053882 -16348.452017 -18856.811861    481.906272                    
V  7   8698.691546  22773.127720 -16100.170153     -0.009032                    
P  8  26049.900564   5147.063194   -120.867833    -10.222036                    
V  8   -743.797774   2733.366566 -31767.131695     -0.014515                    
P  9  16667.128712  -9844.846922 -18200.830225      2.154375                    
V  9  22376.202364   5959.848017  17261.978228      0.046068                    
P 11  19868.151073   2986.367486  16855.364021   -612.652654                    
V 11  12083.910100  19425.942484 -17051.559344     -0.022514                    
P 12 -20356.268610   6288.489974  15613.770257    340.385437                    
V 12  12880.573304 -15433.747345  23059.519754      0.032188                    
P 13 -21689.086984 -12855.112513  -8316.810973   -159.840315                    
V 13  10600.498351    963.609899 -29707.380754     -0.028262                    
P 14   -185.160582  15586.296326  21773.809751     25.519571                    
V 14 -26098.123983  -6986.600480   4687.410407     -0.024235                    
P 15 -26543.627549  -3090.361529   1004.710589   -279.027367                    
V 15   -886.486730  -3578.889492 -30864.822497     -0.019951                    
P 16  10483.539154  10148.985911 -22274.216718    -72.378405                    
V 16 -19965.089126  19633.231538    -94.240547      0.037260                    
P 17   -475.217344 -15453.501891  21925.234739   -192.219935                    
V 17  26316.992492   6231.023862   4826.052875     -0.010702                    
P 18 -15045.720996  21556.807844   2999.090253    447.018553                    
V 18  -5242.914201   -131.484804 -30816.375515      0.036465                    
P 19  20903.934651  -4947.526341  15700.586362   -522.036448                    
V 19  18846.368102   7223.813833 -22075.173956     -0.004537                    
P 20 -20197.961486   6872.463432 -16022.672967    366.373366                    
V 20  10093.009252 -17600.004141 -20398.812849      0.029506                    
P 21  -5471.640396  19715.974806 -16049.830509   -489.524047                    
V 21 -10063.303946 -19676.083944 -20185.428669     -0.025259                    
P 22  -4601.286702  22109.776557  14076.363705    404.865308                    
V 22 -13667.455655  11586.782416 -23233.586109      0.037635                    
P 23  25395.261282   -967.603865  -8283.134066   -141.151976                    
V 23   9907.416292   4719.684034  28796.421035     -0.020974                    
P 24 -16516.202970  -2394.939464  20661.797802     -7.006509                    
V 24  -8118.057904 -25040.445435  -9211.858337     -0.005835                    
P 25 -19492.584450  17205.852672   4863.080129    -58.536652                    
V 25   2411.551752  -6295.090867  31462.021620     -0.055840                    
P 26   1949.176791  18220.197959 -19220.534313    -99.304891                    
V 26 -17033.661219  17540.705767  14910.329252     -0.141596                    
P 27  21110.396486  11870.740340 -11074.998891     30.931469                    
V 27 -14111.122789   -609.970564 -27493.618577      0.031131                    
P 28   9558.214022 -21406.365607  13033.730630    477.306258                    
V 28  12064.862934  -9861.528031 -26403.346842      0.027253                    
P 29 -19192.076870   6948.395309 -16962.158147    641.645666                    
V 29 -20488.065889  -6834.525812  20400.464577      0.019071                    
P 30   1667.739634 -24138.179660 -10859.760130     47.735118                    
V 30   6087.039346  12708.711184 -27389.091136      0.059274                    
P 31   6269.544358  25542.937500   2043.365487    297.607973                    
V 31  -3300.637754  -1572.621696  32116.693314     -0.015234                    
P 32  17022.896349   3422.720604  19889.412494     -1.571700                    
V 32 -17318.544043  18896.423334  12071.161200      0.116920                    
EOF
